{
    "links": {
        "self": "http://www.neowsapp.com/rest/v1/neo/3507182?api_key=iIulBulltgU6a56xZRHN4H3l9WmuAYTsLGpBGhQ2"
    },
    "id": "3507182",
    "neo_reference_id": "3507182",
    "name": "(2010 CJ1)",
    "designation": "2010 CJ1",
    "nasa_jpl_url": "http://ssd.jpl.nasa.gov/sbdb.cgi?sstr=3507182",
    "absolute_magnitude_h": 24.1,
    "estimated_diameter": {
        "kilometers": {
            "estimated_diameter_min": 0.040230458,
            "estimated_diameter_max": 0.0899580388
        },
        "meters": {
            "estimated_diameter_min": 40.2304579834,
            "estimated_diameter_max": 89.9580388169
        },
        "miles": {
            "estimated_diameter_min": 0.0249980399,
            "estimated_diameter_max": 0.0558973165
        },
        "feet": {
            "estimated_diameter_min": 131.9896957704,
            "estimated_diameter_max": 295.1379320721
        }
    },
    "is_potentially_hazardous_asteroid": false,
    "close_approach_data": [
        {
            "close_approach_date": "2010-01-27",
            "close_approach_date_full": "2010-Jan-27 15:43",
            "epoch_date_close_approach": 1264606980000,
            "relative_velocity": {
                "kilometers_per_second": "13.0175902561",
                "kilometers_per_hour": "46863.3249218045",
                "miles_per_hour": "29119.0476437735"
            },
            "miss_distance": {
                "astronomical": "0.0176939231",
                "lunar": "6.8829360859",
                "kilometers": "2646973.207703797",
                "miles": "1644752.8830625186"
            },
            "orbiting_body": "Earth"
        }
    ],
    "orbital_data": {
        "orbit_id": "10",
        "orbit_determination_date": "2017-04-06 08:58:30",
        "first_observation_date": "2010-02-09",
        "last_observation_date": "2010-02-16",
        "data_arc_in_days": 7,
        "observations_used": 26,
        "orbit_uncertainty": "9",
        "minimum_orbit_intersection": ".0143657",
        "jupiter_tisserand_invariant": "4.279",
        "epoch_osculation": "2455239.5",
        "eccentricity": ".4943869616199306",
        "semi_major_axis": "1.563140753932105",
        "inclination": "4.084994706910114",
        "ascending_node_longitude": "138.1739333225369",
        "orbital_period": "713.8312491425442",
        "perihelion_distance": ".7903443460113242",
        "perihelion_argument": "281.7842539657819",
        "aphelion_distance": "2.335937161852886",
        "perihelion_time": "2455178.428381018020",
        "mean_anomaly": "30.79969230812209",
        "mean_motion": ".5043208747619734",
        "equinox": "J2000",
        "orbit_class": {
            "orbit_class_type": "APO",
            "orbit_class_description": "Near-Earth asteroid orbits which cross the Earth’s orbit similar to that of 1862 Apollo",
            "orbit_class_range": "a (semi-major axis) > 1.0 AU; q (perihelion) < 1.017 AU"
        }
    },
    "is_sentry_object": false
}